NORAD_CAT_ID,OBJECT_NAME,OBJECT_TYPE,EPOCH,MEAN_MOTION,ECCENTRICITY,INCLINATION,RA_OF_ASC_NODE,ARG_OF_PERICENTER,MEAN_ANOMALY,BSTAR,MEAN_MOTION_DOT,MEAN_MOTION_DDOT,TLE_LINE0,TLE_LINE1,TLE_LINE2,SEMIMAJOR_AXIS,PERIOD,APOGEE,PERIGEE,DECAYED
52114.0,STARLINK-3737,PAYLOAD,2024-05-20 10:59:00,15.08861896,0.0001621,53.2159,154.0377,81.4143,278.7033,0.00024109,3.553e-05,0.0,0 STARLINK-3737,1 52114U 22029AC  24141.45764054  .00003553  00000-0  24109-3 0  9990,2 52114  53.2159 154.0377 0001621  81.4143 278.7033 15.08861896121419,6917.813,95.436,540.8,538.557,0.0
52114.0,STARLINK-3737,PAYLOAD,2024-05-21 04:28:16,15.08828793,0.0001487,53.2158,150.7674,94.0533,266.0629,-5.4046e-05,-1.148e-05,0.0,0 STARLINK-3737,1 52114U 22029AC  24142.18629786 -.00001148  00000-0 -54046-4 0  9997,2 52114  53.2158 150.7674 0001487  94.0533 266.0629 15.08828793121537,6917.915,95.438,540.808,538.751,0.0
52114.0,STARLINK-3737,PAYLOAD,2024-05-21 07:39:02,15.08832097,0.0001507,53.2159,150.1741,90.9042,269.2123,-0.00010111,-1.896e-05,0.0,0 STARLINK-3737,1 52114U 22029AC  24142.31877546 -.00001896  00000-0 -10111-3 0  9995,2 52114  53.2159 150.1741 0001507  90.9042 269.2123 15.08832097121547,6917.905,95.438,540.812,538.727,0.0
52114.0,STARLINK-3737,PAYLOAD,2024-05-22 04:19:03,15.08835803,0.0001455,53.2156,146.3079,91.7611,268.3548,-2.1411e-05,-6.29e-06,0.0,0 STARLINK-3737,1 52114U 22029AC  24143.17989741 -.00000629  00000-0 -21411-4 0  9990,2 52114  53.2156 146.3079 0001455  91.7611 268.3548 15.08835803121682,6917.893,95.438,540.765,538.752,0.0
52114.0,STARLINK-3737,PAYLOAD,2024-05-22 13:51:22,15.08838277,0.0001467,53.2155,144.523,101.5331,258.5826,0.00012324,1.674e-05,0.0,0 STARLINK-3737,1 52114U 22029AC  24143.57733823  .00001674  00000-0  12324-3 0  9993,2 52114  53.2155 144.5230 0001467 101.5331 258.5826 15.08838277121736,6917.886,95.438,540.766,538.736,0.0
52114.0,STARLINK-3737,PAYLOAD,2024-05-23 07:20:36,15.08848031,0.0001448,53.2152,141.2519,98.942,261.1736,0.00039057,5.935e-05,0.0,0 STARLINK-3737,1 52114U 22029AC  24144.30597718  .00005935  00000-0  39057-3 0  9992,2 52114  53.2152 141.2519 0001448  98.9420 261.1736 15.08848031121856,6917.856,95.437,540.723,538.719,0.0
52114.0,STARLINK-3737,PAYLOAD,2024-05-24 04:00:37,15.08841434,0.0001462,53.2154,137.3862,94.0861,266.0298,8.0768e-05,9.98e-06,0.0,0 STARLINK-3737,1 52114U 22029AC  24145.16709855  .00000998  00000-0  80768-4 0  9994,2 52114  53.2154 137.3862 0001462  94.0861 266.0298 15.08841434121988,6917.876,95.437,540.752,538.73,0.0
52114.0,STARLINK-3737,PAYLOAD,2024-05-24 08:46:46,15.08842804,0.0001456,53.2154,136.4937,95.7628,264.353,0.00010604,1.4e-05,0.0,0 STARLINK-3737,1 52114U 22029AC  24145.36581802  .00001400  00000-0  10604-3 0  9996,2 52114  53.2154 136.4937 0001456  95.7628 264.3530 15.08842804122009,6917.872,95.437,540.744,538.73,0.0
52114.0,STARLINK-3737,PAYLOAD,2024-05-24 23:05:15,15.08839345,0.0001687,53.2147,133.8182,80.411,279.7073,5.5835e-05,6.01e-06,0.0,0 STARLINK-3737,1 52114U 22029AC  24145.96198205  .00000601  00000-0  55835-4 0  9991,2 52114  53.2147 133.8182 0001687  80.4110 279.7073 15.08839345122094,6917.882,95.438,540.914,538.58,0.0
52114.0,STARLINK-3737,PAYLOAD,2024-05-25 03:51:24,15.08837139,0.0001647,53.2149,132.9258,83.6183,276.4997,2.4596e-05,1.03e-06,0.0,0 STARLINK-3737,1 52114U 22029AC  24146.16070329  .00000103  00000-0  24596-4 0  9997,2 52114  53.2149 132.9258 0001647  83.6183 276.4997 15.08837139122134,6917.889,95.438,540.894,538.615,0.0
52114.0,STARLINK-3737,PAYLOAD,2024-05-25 08:37:34,15.0884026,0.0001565,53.2167,132.0337,90.2808,269.8364,4.3778e-05,4.09e-06,0.0,0 STARLINK-3737,1 52114U 22029AC  24146.35942253  .00000409  00000-0  43778-4 0  9994,2 52114  53.2167 132.0337 0001565  90.2808 269.8364 15.08840260122155,6917.88,95.438,540.827,538.662,0.0
52114.0,STARLINK-3737,PAYLOAD,2024-05-25 16:34:30,15.08832291,9.17e-05,53.2166,130.5481,104.3015,255.8079,-5.1175e-05,-1.102e-05,0.0,0 STARLINK-3737,1 52114U 22029AC  24146.69062648 -.00001102  00000-0 -51175-4 0  9995,2 52114  53.2166 130.5481 0000917 104.3015 255.8079 15.08832291122214,6917.904,95.438,540.403,539.135,0.0
52114.0,STARLINK-3737,PAYLOAD,2024-05-26 05:17:34,15.08843641,0.0001469,53.2166,128.1673,96.5869,263.529,9.7545e-05,1.265e-05,0.0,0 STARLINK-3737,1 52114U 22029AC  24147.22053788  .00001265  00000-0  97545-4 0  9999,2 52114  53.2166 128.1673 0001469  96.5869 263.5290 15.08843641122292,6917.869,95.437,540.75,538.718,0.0
52114.0,STARLINK-3737,PAYLOAD,2024-05-26 08:28:20,15.08844333,0.0001468,53.2169,127.5727,96.4445,263.6714,9.7301e-05,1.261e-05,0.0,0 STARLINK-3737,1 52114U 22029AC  24147.35301717  .00001261  00000-0  97301-4 0  9997,2 52114  53.2169 127.5727 0001468  96.4445 263.6714 15.08844333122309,6917.867,95.437,540.748,538.717,0.0
52114.0,STARLINK-3737,PAYLOAD,2024-05-26 22:46:49,15.08836503,0.0001318,53.2163,124.8966,93.9258,266.1885,3.9073e-05,3.34e-06,0.0,0 STARLINK-3737,1 52114U 22029AC  24147.94918465  .00000334  00000-0  39073-4 0  9998,2 52114  53.2163 124.8966 0001318  93.9258 266.1885 15.08836503122392,6917.891,95.438,540.668,538.844,0.0
52114.0,STARLINK-3737,PAYLOAD,2024-05-27 05:08:22,15.08836998,0.0001337,53.2169,123.7071,97.3548,262.7596,3.929e-05,3.37e-06,0.0,0 STARLINK-3737,1 52114U 22029AC  24148.21414474  .00000337  00000-0  39290-4 0  9994,2 52114  53.2169 123.7071 0001337  97.3548 262.7596 15.08836998122449,6917.89,95.438,540.679,538.83,0.0
52114.0,STARLINK-3737,PAYLOAD,2024-05-27 22:37:36,15.08834577,0.0001492,53.2173,120.4331,107.7585,252.357,2.7251e-05,1.46e-06,0.0,0 STARLINK-3737,1 52114U 22029AC  24148.94278628  .00000146  00000-0  27251-4 0  9995,2 52114  53.2173 120.4331 0001492 107.7585 252.3570 15.08834577122545,6917.897,95.438,540.794,538.73,0.0
52114.0,STARLINK-3737,PAYLOAD,2024-05-28 08:09:55,15.08838011,0.0001481,53.2172,118.651,104.0552,256.0605,3.6201e-05,2.88e-06,0.0,0 STARLINK-3737,1 52114U 22029AC  24149.34022484  .00000288  00000-0  36201-4 0  9999,2 52114  53.2172 118.6510 0001481 104.0552 256.0605 15.08838011122619,6917.886,95.438,540.776,538.727,0.0
52114.0,STARLINK-3737,PAYLOAD,2024-05-28 22:28:23,15.08834158,0.000141,53.2172,115.9758,98.2232,261.892,5.2138e-05,5.42e-06,0.0,0 STARLINK-3737,1 52114U 22029AC  24149.93638839  .00000542  00000-0  52138-4 0  9991,2 52114  53.2172 115.9758 0001410  98.2232 261.8920 15.08834158122694,6917.898,95.438,540.739,538.788,0.0
52114.0,STARLINK-3737,PAYLOAD,2024-05-29 08:00:43,15.08828035,0.0001193,53.2178,114.1975,77.1408,282.9717,2.1561e-05,5.5e-07,0.0,0 STARLINK-3737,1 52114U 22029AC  24150.33383607  .00000055  00000-0  21561-4 0  9992,2 52114  53.2178 114.1975 0001193  77.1408 282.9717 15.08828035122764,6917.917,95.438,540.607,538.957,0.0
52114.0,STARLINK-3737,PAYLOAD,2024-05-30 06:16:07,15.08836678,0.0001284,53.2181,110.0317,92.2998,267.8142,7.7065e-06,-1.65e-06,0.0,0 STARLINK-3737,1 52114U 22029AC  24151.26119981 -.00000165  00000-0  77065-5 0  9991,2 52114  53.2181 110.0317 0001284  92.2998 267.8142 15.08836678122896,6917.891,95.438,540.644,538.867,0.0
52114.0,STARLINK-3737,PAYLOAD,2024-05-31 04:31:33,15.08763354,0.0001931,53.2182,105.8689,78.0067,282.1141,0.001654,0.00026078,0.0,0 STARLINK-3737,1 52114U 22029AC  24152.18857872  .00026078  00000-0  16540-2 0  9999,2 52114  53.2182 105.8689 0001931  78.0067 282.1141 15.08763354123046,6918.115,95.442,541.316,538.644,0.0
52114.0,STARLINK-3737,PAYLOAD,2024-05-31 06:06:53,15.08862122,0.000127,53.2184,105.5705,86.5719,273.5418,0.00021468,3.132e-05,0.0,0 STARLINK-3737,1 52114U 22029AC  24152.25478017  .00003132  00000-0  21468-3 0  9999,2 52114  53.2184 105.5705 0001270  86.5719 273.5418 15.08862122123053,6917.813,95.436,540.556,538.799,0.0
52114.0,STARLINK-3737,PAYLOAD,2024-05-31 20:25:22,15.08848578,0.0001133,53.2157,102.8921,94.4425,265.6696,0.00026297,3.901e-05,0.0,0 STARLINK-3737,1 52114U 22029AC  24152.85094980  .00003901  00000-0  26297-3 0  9997,2 52114  53.2157 102.8921 0001133  94.4425 265.6696 15.08848578123142,6917.854,95.437,540.503,538.935,0.0
52114.0,STARLINK-3737,PAYLOAD,2024-06-01 04:22:17,15.08852037,0.0001186,53.2163,101.4051,95.826,264.2867,0.00017536,2.505e-05,0.0,0 STARLINK-3737,1 52114U 22029AC  24153.18214666  .00002505  00000-0  17536-3 0  9994,2 52114  53.2163 101.4051 0001186  95.8260 264.2867 15.08852037123182,6917.844,95.437,540.529,538.888,0.0
52114.0,STARLINK-3737,PAYLOAD,2024-06-02 02:37:41,15.08842353,0.0001209,53.2173,97.243,91.9743,268.1387,-5.5936e-05,-1.178e-05,0.0,0 STARLINK-3737,1 52114U 22029AC  24154.10950902 -.00001178  00000-0 -55936-4 0  9991,2 52114  53.2173  97.2430 0001209  91.9743 268.1387 15.08842353123332,6917.873,95.437,540.575,538.902,0.0
52114.0,STARLINK-3737,PAYLOAD,2024-06-02 13:45:23,15.08847384,0.0001309,53.219,95.16,100.9631,259.1509,-5.6666e-05,-1.19e-05,0.0,0 STARLINK-3737,1 52114U 22029AC  24154.57318815 -.00001190  00000-0 -56666-4 0  9998,2 52114  53.2190  95.1600 0001309 100.9631 259.1509 15.08847384123396,6917.858,95.437,540.628,538.817,0.0
52114.0,STARLINK-3737,PAYLOAD,2024-06-03 05:39:14,15.08844547,0.0001585,53.2193,92.1859,111.8861,248.23,4.8652e-05,4.86e-06,0.0,0 STARLINK-3737,1 52114U 22029AC  24155.23558821  .00000486  00000-0  48652-4 0  9996,2 52114  53.2193  92.1859 0001585 111.8861 248.2300 15.08844547123503,6917.866,95.437,540.828,538.635,0.0
52114.0,STARLINK-3737,PAYLOAD,2024-06-04 05:30:01,15.08849148,0.0001312,53.2183,87.7274,93.1294,266.9849,0.000196,2.834e-05,0.0,0 STARLINK-3737,1 52114U 22029AC  24156.22918288  .00002834  00000-0  19600-3 0  9992,2 52114  53.2183  87.7274 0001312  93.1294 266.9849 15.08849148123645,6917.852,95.437,540.625,538.81,0.0
52114.0,STARLINK-3737,PAYLOAD,2024-06-04 22:59:16,15.08839965,0.0001387,53.2174,84.4537,94.5413,265.5738,5.2776e-05,5.52e-06,0.0,0 STARLINK-3737,1 52114U 22029AC  24156.95783009  .00000552  00000-0  52776-4 0  9990,2 52114  53.2174  84.4537 0001387  94.5413 265.5738 15.08839965123751,6917.88,95.438,540.705,538.786,0.0
